NORAD_CAT_ID,OBJECT_NAME,OBJECT_TYPE,EPOCH,MEAN_MOTION,ECCENTRICITY,INCLINATION,RA_OF_ASC_NODE,ARG_OF_PERICENTER,MEAN_ANOMALY,BSTAR,MEAN_MOTION_DOT,MEAN_MOTION_DDOT,TLE_LINE0,TLE_LINE1,TLE_LINE2,SEMIMAJOR_AXIS,PERIOD,APOGEE,PERIGEE,DECAYED
54091.0,STARLINK-5221,PAYLOAD,2022-11-27 14:00:01,15.73158174,0.0004197,53.2152,319.9544,359.6431,129.3356,0.00014881,0.00020283,0.0,0 STARLINK-5221,1 54091U 22136AS  22331.58334491  .00020283  00000-0  14881-3 0  9991,2 54091  53.2152 319.9544 0004197 359.6431 129.3356 15.73158174  1301,6728.014,91.536,352.70300000000015,347.056,0.0
54091.0,STARLINK-5221,PAYLOAD,2022-11-27 22:00:00,15.73172654,0.0003925,53.2152,318.3035,2.0275,215.832,0.00033944,0.00047244,0.0,0 STARLINK-5221,1 54091U 22136AS  22331.91667824  .00047244  00000-0  33944-3 0  9994,2 54091  53.2152 318.3035 0003925   2.0275 215.8320 15.73172654  1303,6727.973000000001,91.535,352.47900000000016,347.19699999999995,0.0
54091.0,STARLINK-5221,PAYLOAD,2022-11-28 00:00:00,15.73212315,0.0003959,53.2154,317.8915,2.7088,327.3666,-0.00018775,-0.00026916,0.0,0 STARLINK-5221,1 54091U 22136AS  22332.00001157 -.00026916  00000-0 -18775-3 0  9996,2 54091  53.2154 317.8915 0003959   2.7088 327.3666 15.73212315  6544,6727.86,91.532,352.389,347.06199999999984,0.0
54091.0,STARLINK-5221,PAYLOAD,2022-11-28 16:00:00,15.73223814,0.0004101,53.2155,314.5931,6.2181,141.7236,0.00021762,0.0003007,0.0,0 STARLINK-5221,1 54091U 22136AS  22332.66667824  .00030070  00000-0  21762-3 0  9991,2 54091  53.2155 314.5931 0004101   6.2181 141.7236 15.73223814  6648,6727.8269999999975,91.532,352.451,346.93300000000005,0.0
54091.0,STARLINK-5221,PAYLOAD,2022-11-28 22:00:01,15.73259901,0.000397,53.2156,313.3549,6.8333,117.8891,-0.00021882,-0.00031314,0.0,0 STARLINK-5221,1 54091U 22136AS  22332.91668981 -.00031314  00000-0 -21882-3 0  9991,2 54091  53.2156 313.3549 0003970   6.8333 117.8891 15.73259901  1304,6727.724,91.53,352.26,346.918,0.0
54091.0,STARLINK-5221,PAYLOAD,2022-11-29 06:00:00,15.73213847,0.0004204,53.2156,311.7074,4.0509,209.6031,-0.00029501,-0.00041869,0.0,0 STARLINK-5221,1 54091U 22136AS  22333.25001157 -.00041869  00000-0 -29501-3 0  9997,2 54091  53.2156 311.7074 0004204   4.0509 209.6031 15.73213847  6732,6727.856,91.532,352.5490000000001,346.892,0.0
54091.0,STARLINK-5221,PAYLOAD,2022-11-29 14:00:01,15.73191026,0.0004067,53.2159,310.0545,0.2663,302.3822,-0.00024288,-0.00034575,0.0,0 STARLINK-5221,1 54091U 22136AS  22333.58335648 -.00034575  00000-0 -24288-3 0  9991,2 54091  53.2159 310.0545 0004067   0.2663 302.3822 15.73191026  1307,6727.920999999999,91.534,352.522,347.05,0.0
54091.0,STARLINK-5221,PAYLOAD,2022-11-29 22:00:00,15.73292674,0.0003651,53.2164,308.3996,345.1114,46.3619,-0.0041134,-0.00544635,0.0,0 STARLINK-5221,1 54091U 22136AS  22333.91667824 -.00544635  00000-0 -41134-2 0  9993,2 54091  53.2164 308.3996 0003651 345.1114  46.3619 15.73292674  6847,6727.630999999999,91.528,351.952,347.04,0.0
54091.0,STARLINK-5221,PAYLOAD,2022-11-30 06:00:00,15.7305389,0.000411,53.2175,306.7494,312.0404,168.2189,-0.0087512,-0.01095162,0.0,0 STARLINK-5221,1 54091U 22136AS  22334.25001157 -.01095162  00000-0 -87512-2 0  9999,2 54091  53.2175 306.7494 0004110 312.0404 168.2189 15.73053890  6896,6728.312,91.542,352.94199999999995,347.411,0.0
54091.0,STARLINK-5221,PAYLOAD,2022-11-30 14:00:01,15.72266754,0.0005791,53.2174,305.0997,281.6089,286.9818,-0.0094595,-0.01140203,0.0,0 STARLINK-5221,1 54091U 22136AS  22334.58335648 -.01140203  00000-0 -94595-2 0  9996,2 54091  53.2174 305.0997 0005791 281.6089 286.9818 15.72266754  1303,6730.557,91.588,356.32,348.525,0.0
54091.0,STARLINK-5221,PAYLOAD,2022-11-30 22:00:00,15.71437518,0.0006908,53.2175,303.4522,270.4496,25.3772,-0.0095345,-0.01113255,0.0,0 STARLINK-5221,1 54091U 22136AS  22334.91667824 -.01113255  00000-0 -95345-2 0  9998,2 54091  53.2175 303.4522 0006908 270.4496  25.3772 15.71437518  6990,6732.925,91.636,359.441,350.139,0.0
54091.0,STARLINK-5221,PAYLOAD,2022-12-01 14:00:01,15.69831344,0.0005041,53.2174,300.1667,271.006,196.4715,-0.010583,-0.01148703,0.0,0 STARLINK-5221,1 54091U 22136AS  22335.58334491 -.01148703  00000-0 -10583-1 0  9999,2 54091  53.2174 300.1667 0005041 271.0060 196.4715 15.69831344  1303,6737.517,91.73,362.778,355.985,0.0
54091.0,STARLINK-5221,PAYLOAD,2022-12-01 22:00:00,15.68789475,0.0005707999999999,53.2168,298.5269,267.6247,284.3269,-0.0078424,-0.00830213,0.0,0 STARLINK-5221,1 54091U 22136AS  22335.91667824 -.00830213  00000-0 -78424-2 0  9997,2 54091  53.2168 298.5269 0005708 267.6247 284.3269 15.68789475  1309,6740.499,91.791,366.212,358.517,0.0
54091.0,STARLINK-5221,PAYLOAD,2022-12-02 00:00:00,15.68762375,0.0005065,53.2169,298.1164,268.078,34.7188,-0.010182,-0.01066223,0.0,0 STARLINK-5221,1 54091U 22136AS  22336.00001157 -.01066223  00000-0 -10182-1 0  9998,2 54091  53.2169 298.1164 0005065 268.0780  34.7188 15.68762375  7160,6740.5769999999975,91.792,365.856,359.028,0.0
54091.0,STARLINK-5221,PAYLOAD,2022-12-02 14:00:01,15.67395407,0.0002446,53.2167,295.2532,295.2679,62.3562,-0.011685,-0.0116429,0.0,0 STARLINK-5221,1 54091U 22136AS  22336.58334491 -.01164290  00000-0 -11685-1 0  9993,2 54091  53.2167 295.2532 0002446 295.2679  62.3562 15.67395407  1304,6744.495,91.872,368.01,364.711,0.0
54091.0,STARLINK-5221,PAYLOAD,2022-12-02 16:00:00,15.67181164,0.0001804,53.2173,294.8432,313.0184,155.0632,-0.011701,-0.01156233,0.0,0 STARLINK-5221,1 54091U 22136AS  22336.66667824 -.01156233  00000-0 -11701-1 0  9998,2 54091  53.2173 294.8432 0001804 313.0184 155.0632 15.67181164  7275,6745.11,91.885,368.192,365.758,0.0
54091.0,STARLINK-5221,PAYLOAD,2022-12-02 22:00:00,15.66575467,0.0005781,53.2167,293.6179,269.8303,169.2279,-0.012033,-0.01161698,0.0,0 STARLINK-5221,1 54091U 22136AS  22336.91667824 -.01161698  00000-0 -12033-1 0  9996,2 54091  53.2167 293.6179 0005781 269.8303 169.2279 15.66575467  1306,6746.849,91.92,372.614,364.81300000000016,0.0
54091.0,STARLINK-5221,PAYLOAD,2022-12-03 14:00:01,15.6500044,0.0001008,53.217,290.356,320.9371,278.0177,-0.013665,-0.01227649,0.0,0 STARLINK-5221,1 54091U 22136AS  22337.58334491 -.01227649  00000-0 -13665-1 0  9992,2 54091  53.2170 290.3560 0001008 320.9371 278.0177 15.65000440  7417,6751.374,92.013,373.92,372.559,0.0
54091.0,STARLINK-5221,PAYLOAD,2022-12-03 22:00:00,15.641577300000002,0.0001026,53.217,288.7265,52.1496,265.3154,-0.013631,-0.0118825,0.0,0 STARLINK-5221,1 54091U 22136AS  22337.91667824 -.01188250  00000-0 -13631-1 0  9995,2 54091  53.2170 288.7265 0001026  52.1496 265.3154 15.64157730  1302,6753.799,92.062,376.357,374.971,0.0
54091.0,STARLINK-5221,PAYLOAD,2022-12-04 06:00:00,15.63310951,0.0001138,53.2172,287.1024,62.5131,332.4843,-0.013526,-0.01144663,0.0,0 STARLINK-5221,1 54091U 22136AS  22338.25001157 -.01144663  00000-0 -13526-1 0  9997,2 54091  53.2172 287.1024 0001138  62.5131 332.4843 15.63310951  7521,6756.238,92.112,378.872,377.334,0.0
54091.0,STARLINK-5221,PAYLOAD,2022-12-04 14:00:01,15.62494807,0.000124,53.2169,285.4761,58.2168,53.3222,-0.013913,-0.0114056,0.0,0 STARLINK-5221,1 54091U 22136AS  22338.58334491 -.01140560  00000-0 -13913-1 0  9995,2 54091  53.2169 285.4761 0001240  58.2168  53.3222 15.62494807  1304,6758.59,92.16,381.293,379.617,0.0
54091.0,STARLINK-5221,PAYLOAD,2022-12-04 22:00:00,15.61686291,0.0001359,53.2167,283.8532,62.2404,124.8575,-0.0144419999999999,-0.01146419,0.0,0 STARLINK-5221,1 54091U 22136AS  22338.91667824 -.01146419  00000-0 -14442-1 0  9998,2 54091  53.2167 283.8532 0001359  62.2404 124.8575 15.61686291  1303,6760.9230000000025,92.208,383.707,381.869,0.0
54091.0,STARLINK-5221,PAYLOAD,2022-12-05 06:00:00,15.60870695,0.0001232,53.2169,282.235,82.2814,179.3996,-0.014869,-0.01143657,0.0,0 STARLINK-5221,1 54091U 22136AS  22339.25001157 -.01143657  00000-0 -14869-1 0  9991,2 54091  53.2169 282.2350 0001232  82.2814 179.3996 15.60870695  7673,6763.278,92.256,385.976,384.31,0.0
54091.0,STARLINK-5221,PAYLOAD,2022-12-05 14:00:01,15.60068766,0.0001076,53.2169,280.6147,71.9666,263.3813,-0.015593,-0.01160809,0.0,0 STARLINK-5221,1 54091U 22136AS  22339.58335648 -.01160809  00000-0 -15593-1 0  9995,2 54091  53.2169 280.6147 0001076  71.9666 263.3813 15.60068766  1309,6765.595,92.304,388.18800000000016,386.732,0.0
54091.0,STARLINK-5221,PAYLOAD,2022-12-05 22:00:01,15.5923616,0.0001112,53.2176,278.9968,68.0328,339.9529,-0.0156949999999999,-0.01134386,0.0,0 STARLINK-5221,1 54091U 22136AS  22339.91668981 -.01134386  00000-0 -15695-1 0  9995,2 54091  53.2176 278.9968 0001112  68.0328 339.9529 15.59236160  1308,6768.004,92.353,390.621,389.116,0.0
54091.0,STARLINK-5221,PAYLOAD,2022-12-06 08:00:01,15.58225241,0.0001217,53.2168,276.9814,78.2393,149.0863,-0.016422,-0.01141334,0.0,0 STARLINK-5221,1 54091U 22136AS  22340.33334491 -.01141334  00000-0 -16422-1 0  9999,2 54091  53.2168 276.9814 0001217  78.2393 149.0863 15.58225241  7841,6770.93,92.413,393.619,391.971,0.0
54091.0,STARLINK-5221,PAYLOAD,2022-12-06 14:00:01,15.57628086,0.0001339,53.2173,275.7707,67.8318,122.4657,-0.017083,-0.01158855,0.0,0 STARLINK-5221,1 54091U 22136AS  22340.58335648 -.01158855  00000-0 -17083-1 0  9991,2 54091  53.2173 275.7707 0001339  67.8318 122.4657 15.57628086  1305,6772.661,92.448,395.4330000000001,393.619,0.0
54091.0,STARLINK-5221,PAYLOAD,2022-12-06 22:00:00,15.5680554,0.0001196,53.2171,274.1596,77.1813,182.7507,-0.017429,-0.011474,0.0,0 STARLINK-5221,1 54091U 22136AS  22340.91667824 -.01147400  00000-0 -17429-1 0  9990,2 54091  53.2171 274.1596 0001196  77.1813 182.7507 15.56805540  1301,6775.045999999999,92.497,397.722,396.101,0.0
54091.0,STARLINK-5221,PAYLOAD,2022-12-07 08:00:01,15.55752866,0.0001230999999999,53.217,272.15,77.5251,358.164,-0.017222,-0.010953,0.0,0 STARLINK-5221,1 54091U 22136AS  22341.33334491 -.01095300  00000-0 -17222-1 0  9990,2 54091  53.2170 272.1500 0001231  77.5251 358.1640 15.55752866  8005,6778.102,92.56,400.801,399.133,0.0
